[
  {
    "OBJECT_NAME": "2024-016B",
    "OBJECT_ID": "2024-016B",
    "EPOCH": "2024-02-04T03:08:56.205312",
    "MEAN_MOTION": 15.11276294,
    "ECCENTRICITY": 0.0013419,
    "INCLINATION": 97.5237,
    "RA_OF_ASC_NODE": 111.2761,
    "ARG_OF_PERICENTER": 240.6364,
    "MEAN_ANOMALY": 119.3526,
    "EPHEMERIS_TYPE": 0,
    "CLASSIFICATION_TYPE": "U",
    "NORAD_CAT_ID": 58821,
    "ELEMENT_SET_NO": 999,
    "REV_AT_EPOCH": 180,
    "BSTAR": 0.00050826,
    "MEAN_MOTION_DOT": 8.51e-05,
    "MEAN_MOTION_DDOT": 0
  },
  {
    "OBJECT_NAME": "2024-016C",
    "OBJECT_ID": "2024-016C",
    "EPOCH": "2024-02-04T04:43:59.674944",
    "MEAN_MOTION": 15.11289968,
    "ECCENTRICITY": 0.0013746,
    "INCLINATION": 97.5227,
    "RA_OF_ASC_NODE": 111.3404,
    "ARG_OF_PERICENTER": 240.4474,
    "MEAN_ANOMALY": 119.5387,
    "EPHEMERIS_TYPE": 0,
    "CLASSIFICATION_TYPE": "U",
    "NORAD_CAT_ID": 58822,
    "ELEMENT_SET_NO": 999,
    "REV_AT_EPOCH": 181,
    "BSTAR": 0.00045527,
    "MEAN_MOTION_DOT": 7.619e-05,
    "MEAN_MOTION_DDOT": 0
  },
  {
    "OBJECT_NAME": "2024-016D",
    "OBJECT_ID": "2024-016D",
    "EPOCH": "2024-02-04T04:41:55.572576",
    "MEAN_MOTION": 15.11462173,
    "ECCENTRICITY": 0.0013652,
    "INCLINATION": 97.5202,
    "RA_OF_ASC_NODE": 111.3385,
    "ARG_OF_PERICENTER": 244.375,
    "MEAN_ANOMALY": 115.607,
    "EPHEMERIS_TYPE": 0,
    "CLASSIFICATION_TYPE": "U",
    "NORAD_CAT_ID": 58823,
    "ELEMENT_SET_NO": 999,
    "REV_AT_EPOCH": 181,
    "BSTAR": 0.00041389,
    "MEAN_MOTION_DOT": 6.953e-05,
    "MEAN_MOTION_DDOT": 0
  },
  {
    "OBJECT_NAME": "2024-016E",
    "OBJECT_ID": "2024-016E",
    "EPOCH": "2024-02-03T21:11:41.174016",
    "MEAN_MOTION": 15.52705468,
    "ECCENTRICITY": 0.0186376,
    "INCLINATION": 97.6677,
    "RA_OF_ASC_NODE": 112.0142,
    "ARG_OF_PERICENTER": 342.5627,
    "MEAN_ANOMALY": 16.9279,
    "EPHEMERIS_TYPE": 0,
    "CLASSIFICATION_TYPE": "U",
    "NORAD_CAT_ID": 58824,
    "ELEMENT_SET_NO": 999,
    "REV_AT_EPOCH": 180,
    "BSTAR": 0.00055583,
    "MEAN_MOTION_DOT": 0.00073061,
    "MEAN_MOTION_DDOT": 3.5875e-06
  },
  {
    "OBJECT_NAME": "2024-016F",
    "OBJECT_ID": "2024-016F",
    "EPOCH": "2024-01-31T16:57:35.222688",
    "MEAN_MOTION": 15.11267796,
    "ECCENTRICITY": 0.0013491,
    "INCLINATION": 97.5238,
    "RA_OF_ASC_NODE": 107.9071,
    "ARG_OF_PERICENTER": 255.9841,
    "MEAN_ANOMALY": 205.349,
    "EPHEMERIS_TYPE": 0,
    "CLASSIFICATION_TYPE": "U",
    "NORAD_CAT_ID": 58825,
    "ELEMENT_SET_NO": 999,
    "REV_AT_EPOCH": 121,
    "BSTAR": 0.0008512,
    "MEAN_MOTION_DOT": 0.00014304,
    "MEAN_MOTION_DDOT": 0
  },
  {
    "OBJECT_NAME": "STARLINK-31233",
    "OBJECT_ID": "2024-017A",
    "EPOCH": "2024-02-03T22:00:00.999936",
    "MEAN_MOTION": 15.73226438,
    "ECCENTRICITY": 6.16e-05,
    "INCLINATION": 53.1646,
    "RA_OF_ASC_NODE": 166.5817,
    "ARG_OF_PERICENTER": 82.5905,
    "MEAN_ANOMALY": 4.4965,
    "EPHEMERIS_TYPE": 0,
    "CLASSIFICATION_TYPE": "U",
    "NORAD_CAT_ID": 58826,
    "ELEMENT_SET_NO": 999,
    "REV_AT_EPOCH": 284,
    "BSTAR": -0.00019983,
    "MEAN_MOTION_DOT": -0.000286,
    "MEAN_MOTION_DDOT": 0
  },
  {
    "OBJECT_NAME": "STARLINK-31271",
    "OBJECT_ID": "2024-017B",
    "EPOCH": "2024-02-03T22:00:00.999936",
    "MEAN_MOTION": 15.75132106,
    "ECCENTRICITY": 0.0001049,
    "INCLINATION": 53.1657,
    "RA_OF_ASC_NODE": 166.455,
    "ARG_OF_PERICENTER": 84.7905,
    "MEAN_ANOMALY": 64.2158,
    "EPHEMERIS_TYPE": 0,
    "CLASSIFICATION_TYPE": "U",
    "NORAD_CAT_ID": 58827,
    "ELEMENT_SET_NO": 999,
    "REV_AT_EPOCH": 284,
    "BSTAR": -0.010003,
    "MEAN_MOTION_DOT": -0.01359824,
    "MEAN_MOTION_DDOT": 0
  },
  {
    "OBJECT_NAME": "STARLINK-31222",
    "OBJECT_ID": "2024-017C",
    "EPOCH": "2024-02-03T22:00:00.999936",
    "MEAN_MOTION": 15.73196543,
    "ECCENTRICITY": 8.28e-05,
    "INCLINATION": 53.1644,
    "RA_OF_ASC_NODE": 166.5778,
    "ARG_OF_PERICENTER": 71.9514,
    "MEAN_ANOMALY": 16.9127,
    "EPHEMERIS_TYPE": 0,
    "CLASSIFICATION_TYPE": "U",
    "NORAD_CAT_ID": 58828,
    "ELEMENT_SET_NO": 999,
    "REV_AT_EPOCH": 284,
    "BSTAR": 0.0001874,
    "MEAN_MOTION_DOT": 0.00025758,
    "MEAN_MOTION_DDOT": 0
  },
  {
    "OBJECT_NAME": "STARLINK-31258",
    "OBJECT_ID": "2024-017D",
    "EPOCH": "2024-02-03T22:00:00.999936",
    "MEAN_MOTION": 15.73125233,
    "ECCENTRICITY": 0.0001119,
    "INCLINATION": 53.1643,
    "RA_OF_ASC_NODE": 166.5763,
    "ARG_OF_PERICENTER": 21.7436,
    "MEAN_ANOMALY": 67.9941,
    "EPHEMERIS_TYPE": 0,
    "CLASSIFICATION_TYPE": "U",
    "NORAD_CAT_ID": 58829,
    "ELEMENT_SET_NO": 999,
    "REV_AT_EPOCH": 284,
    "BSTAR": 0.0010288,
    "MEAN_MOTION_DOT": 0.00145837,
    "MEAN_MOTION_DDOT": 0
  },
  {
    "OBJECT_NAME": "STARLINK-31253",
    "OBJECT_ID": "2024-017E",
    "EPOCH": "2024-02-03T22:00:00.999936",
    "MEAN_MOTION": 15.73105061,
    "ECCENTRICITY": 0.0001372,
    "INCLINATION": 53.1641,
    "RA_OF_ASC_NODE": 166.5744,
    "ARG_OF_PERICENTER": 63.3543,
    "MEAN_ANOMALY": 27.2514,
    "EPHEMERIS_TYPE": 0,
    "CLASSIFICATION_TYPE": "U",
    "NORAD_CAT_ID": 58830,
    "ELEMENT_SET_NO": 999,
    "REV_AT_EPOCH": 284,
    "BSTAR": 0.0011159,
    "MEAN_MOTION_DOT": 0.00158338,
    "MEAN_MOTION_DDOT": 0
  },
  {
    "OBJECT_NAME": "STARLINK-31232",
    "OBJECT_ID": "2024-017F",
    "EPOCH": "2024-02-03T22:00:00.999936",
    "MEAN_MOTION": 15.73221852,
    "ECCENTRICITY": 1e-05,
    "INCLINATION": 53.164,
    "RA_OF_ASC_NODE": 166.5725,
    "ARG_OF_PERICENTER": 113.6615,
    "MEAN_ANOMALY": 337.8317,
    "EPHEMERIS_TYPE": 0,
    "CLASSIFICATION_TYPE": "U",
    "NORAD_CAT_ID": 58831,
    "ELEMENT_SET_NO": 999,
    "REV_AT_EPOCH": 284,
    "BSTAR": -2.2233e-05,
    "MEAN_MOTION_DOT": -3.74e-05,
    "MEAN_MOTION_DDOT": 0
  },
  {
    "OBJECT_NAME": "STARLINK-31263",
    "OBJECT_ID": "2024-017G",
    "EPOCH": "2024-02-04T00:00:00.999648",
    "MEAN_MOTION": 15.73250372,
    "ECCENTRICITY": 6.26e-05,
    "INCLINATION": 53.1628,
    "RA_OF_ASC_NODE": 166.1571,
    "ARG_OF_PERICENTER": 34.3148,
    "MEAN_ANOMALY": 170.2974,
    "EPHEMERIS_TYPE": 0,
    "CLASSIFICATION_TYPE": "U",
    "NORAD_CAT_ID": 58832,
    "ELEMENT_SET_NO": 999,
    "REV_AT_EPOCH": 296,
    "BSTAR": -0.00055384,
    "MEAN_MOTION_DOT": -0.00077798,
    "MEAN_MOTION_DDOT": 0
  },
  {
    "OBJECT_NAME": "STARLINK-31175",
    "OBJECT_ID": "2024-017H",
    "EPOCH": "2024-02-03T22:00:00.999936",
    "MEAN_MOTION": 15.7729769,
    "ECCENTRICITY": 0.0001116,
    "INCLINATION": 53.1656,
    "RA_OF_ASC_NODE": 166.3363,
    "ARG_OF_PERICENTER": 86.1818,
    "MEAN_ANOMALY": 120.2982,
    "EPHEMERIS_TYPE": 0,
    "CLASSIFICATION_TYPE": "U",
    "NORAD_CAT_ID": 58833,
    "ELEMENT_SET_NO": 999,
    "REV_AT_EPOCH": 284,
    "BSTAR": -0.0090764,
    "MEAN_MOTION_DOT": -0.01358887,
    "MEAN_MOTION_DDOT": 0
  },
  {
    "OBJECT_NAME": "STARLINK-31171",
    "OBJECT_ID": "2024-017J",
    "EPOCH": "2024-02-03T22:00:00.999936",
    "MEAN_MOTION": 15.75604833,
    "ECCENTRICITY": 9.73e-05,
    "INCLINATION": 53.1656,
    "RA_OF_ASC_NODE": 166.4182,
    "ARG_OF_PERICENTER": 83.611,
    "MEAN_ANOMALY": 82.9965,
    "EPHEMERIS_TYPE": 0,
    "CLASSIFICATION_TYPE": "U",
    "NORAD_CAT_ID": 58834,
    "ELEMENT_SET_NO": 999,
    "REV_AT_EPOCH": 284,
    "BSTAR": -0.0097985,
    "MEAN_MOTION_DOT": -0.01360049,
    "MEAN_MOTION_DDOT": 0
  }
]