2024-016B               
1 58821U 24016B   24035.13120608  .00008510  00000+0  50826-3 0  9999
2 58821  97.5237 111.2761 0013419 240.6364 119.3526 15.11276294  1805
2024-016C               
1 58822U 24016C   24035.19721846  .00007619  00000+0  45527-3 0  9998
2 58822  97.5227 111.3404 0013746 240.4474 119.5387 15.11289968  1813
2024-016D               
1 58823U 24016D   24035.19578209  .00006953  00000+0  41389-3 0  9994
2 58823  97.5202 111.3385 0013652 244.3750 115.6070 15.11462173  1818
2024-016E               
1 58824U 24016E   24034.88311544  .00073061  35875-5  55583-3 0  9996
2 58824  97.6677 112.0142 0186376 342.5627  16.9279 15.52705468  1808
2024-016F               
1 58825U 24016F   24031.70665767  .00014304  00000+0  85120-3 0  9995
2 58825  97.5238 107.9071 0013491 255.9841 205.3490 15.11267796  1213
STARLINK-31233          
1 58826U 24017A   24034.91667824 -.00028600  00000+0 -19983-3 0  9999
2 58826  53.1646 166.5817 0000616  82.5905   4.4965 15.73226438  2845
STARLINK-31271          
1 58827U 24017B   24034.91667824 -.01359824  00000+0 -10003-1 0  9998
2 58827  53.1657 166.4550 0001049  84.7905  64.2158 15.75132106  2844
STARLINK-31222          
1 58828U 24017C   24034.91667824  .00025758  00000+0  18740-3 0  9990
2 58828  53.1644 166.5778 0000828  71.9514  16.9127 15.73196543  2845
STARLINK-31258          
1 58829U 24017D   24034.91667824  .00145837  00000+0  10288-2 0  9990
2 58829  53.1643 166.5763 0001119  21.7436  67.9941 15.73125233  2847
STARLINK-31253          
1 58830U 24017E   24034.91667824  .00158338  00000+0  11159-2 0  9990
2 58830  53.1641 166.5744 0001372  63.3543  27.2514 15.73105061  2840
STARLINK-31232          
1 58831U 24017F   24034.91667824 -.00003740  00000+0 -22233-4 0  9996
2 58831  53.1640 166.5725 0000100 113.6615 337.8317 15.73221852  2844
STARLINK-31263          
1 58832U 24017G   24035.00001157 -.00077798  00000+0 -55384-3 0  9995
2 58832  53.1628 166.1571 0000626  34.3148 170.2974 15.73250372  2969
STARLINK-31175          
1 58833U 24017H   24034.91667824 -.01358887  00000+0 -90764-2 0  9996
2 58833  53.1656 166.3363 0001116  86.1818 120.2982 15.77297690  2845
STARLINK-31171          
1 58834U 24017J   24034.91667824 -.01360049  00000+0 -97985-2 0  9992
2 58834  53.1656 166.4182 0000973  83.6110  82.9965 15.75604833  2847
